{
    "links": {
        "self": "http://www.neowsapp.com/rest/v1/neo/3733851?api_key=iIulBulltgU6a56xZRHN4H3l9WmuAYTsLGpBGhQ2"
    },
    "id": "3733851",
    "neo_reference_id": "3733851",
    "name": "(2015 VK64)",
    "designation": "2015 VK64",
    "nasa_jpl_url": "http://ssd.jpl.nasa.gov/sbdb.cgi?sstr=3733851",
    "absolute_magnitude_h": 27.4,
    "estimated_diameter": {
        "kilometers": {
            "estimated_diameter_min": 0.0088014652,
            "estimated_diameter_max": 0.0196806745
        },
        "meters": {
            "estimated_diameter_min": 8.801465209,
            "estimated_diameter_max": 19.6806745089
        },
        "miles": {
            "estimated_diameter_min": 0.0054689752,
            "estimated_diameter_max": 0.0122290004
        },
        "feet": {
            "estimated_diameter_min": 28.8761991163,
            "estimated_diameter_max": 64.5691441559
        }
    },
    "is_potentially_hazardous_asteroid": false,
    "close_approach_data": [
        {
            "close_approach_date": "1973-12-05",
            "close_approach_date_full": "1973-Dec-05 08:00",
            "epoch_date_close_approach": 123926400000,
            "relative_velocity": {
                "kilometers_per_second": "25.1657738864",
                "kilometers_per_hour": "90596.7859910166",
                "miles_per_hour": "56293.3196064736"
            },
            "miss_distance": {
                "astronomical": "0.4668974077",
                "lunar": "181.6230915953",
                "kilometers": "69846857.700441599",
                "miles": "43400824.8520641062"
            },
            "orbiting_body": "Earth"
        },
        {
            "close_approach_date": "2015-11-03",
            "close_approach_date_full": "2015-Nov-03 19:30",
            "epoch_date_close_approach": 1446579000000,
            "relative_velocity": {
                "kilometers_per_second": "11.2603931559",
                "kilometers_per_hour": "40537.4153611525",
                "miles_per_hour": "25188.3734503784"
            },
            "miss_distance": {
                "astronomical": "0.0098518293",
                "lunar": "3.8323615977",
                "kilometers": "1473812.678883591",
                "miles": "915784.7331559158"
            },
            "orbiting_body": "Earth"
        },
        {
            "close_approach_date": "2019-04-26",
            "close_approach_date_full": "2019-Apr-26 16:31",
            "epoch_date_close_approach": 1556296260000,
            "relative_velocity": {
                "kilometers_per_second": "12.5549582195",
                "kilometers_per_hour": "45197.8495900805",
                "miles_per_hour": "28084.1860411253"
            },
            "miss_distance": {
                "astronomical": "0.0279481693",
                "lunar": "10.8718378577",
                "kilometers": "4180986.597679391",
                "miles": "2597944.6035059558"
            },
            "orbiting_body": "Mars"
        }
    ],
    "orbital_data": {
        "orbit_id": "4",
        "orbit_determination_date": "2019-07-10 05:35:25",
        "first_observation_date": "2015-11-04",
        "last_observation_date": "2015-11-08",
        "data_arc_in_days": 4,
        "observations_used": 34,
        "orbit_uncertainty": "7",
        "minimum_orbit_intersection": ".00258583",
        "jupiter_tisserand_invariant": "3.427",
        "epoch_osculation": "2459000.5",
        "eccentricity": ".5788691926088513",
        "semi_major_axis": "2.197691590045074",
        "inclination": ".9225071970796584",
        "ascending_node_longitude": "47.29496857135473",
        "orbital_period": "1190.004342660598",
        "perihelion_distance": ".9255156337124192",
        "perihelion_argument": "315.3226326352982",
        "aphelion_distance": "3.469867546377728",
        "perihelion_time": "2458492.675234308564",
        "mean_anomaly": "153.6270995786259",
        "mean_motion": ".3025199044191018",
        "equinox": "J2000",
        "orbit_class": {
            "orbit_class_type": "APO",
            "orbit_class_description": "Near-Earth asteroid orbits which cross the Earth’s orbit similar to that of 1862 Apollo",
            "orbit_class_range": "a (semi-major axis) > 1.0 AU; q (perihelion) < 1.017 AU"
        }
    },
    "is_sentry_object": false
}